FENGYUN 1C DEB          
1 31635U 99025CAR 17345.70155639  .00000957  00000-0  37219-3 0  9995
2 31635  99.4386 311.7567 0051599 137.9323 222.5837 14.31713562203676
